{"type": "FeatureCollection", "features": [ {"type": "Feature", "properties": {"norad_id": 31325, "name": "FENGYUN 1C DEB", "group": "fengyun-1c-debris", "lat": -63.904251140213475, "lon": -107.10512508706444, "alt_km": 812.9641285643565, "timestamp": "2025-12-23T11:34:48.444736+00:00", "meta": {"OBJECT_NAME": "FENGYUN 1C DEB", "OBJECT_ID": "1999-025BQD", "EPOCH": "2025-12-17T00:12:23.735520", "MEAN_MOTION": 14.16922892, "ECCENTRICITY": 0.00720914, "INCLINATION": 98.9915, "RA_OF_ASC_NODE": 85.2122, "ARG_OF_PERICENTER": 208.4071, "MEAN_ANOMALY": 151.3165, "EPHEMERIS_TYPE": 0, "CLASSIFICATION_TYPE": "U", "NORAD_CAT_ID": 31325, "ELEMENT_SET_NO": 999, "REV_AT_EPOCH": 59838, "BSTAR": 0.0016097339, "MEAN_MOTION_DOT": 3.269e-05, "MEAN_MOTION_DDOT": 0}, "tle": {"line1": "1 31325U 99025BQD 25351.00860805  .00003269  00000+0  16097-2 0  9996", "line2": "2 31325  98.9915  85.2122 0072091 208.4071 151.3165 14.16922892598387"}}, "geometry": {"type": "Point", "coordinates": [-107.10512508706444, -63.904251140213475]}}, {"type": "Feature", "properties": {"norad_id": 31326, "name": "FENGYUN 1C DEB", "group": "fengyun-1c-debris", "lat": -8.030078398510517, "lon": 59.811514191788326, "alt_km": 574.0143178959142, "timestamp": "2025-12-23T11:34:48.444744+00:00", "meta": {"OBJECT_NAME": "FENGYUN 1C DEB", "OBJECT_ID": "1999-025BQE", "EPOCH": "2025-12-15T15:32:28.923936", "MEAN_MOTION": 15.00424804, "ECCENTRICITY": 0.00131933, "INCLINATION": 98.9962, "RA_OF_ASC_NODE": 232.0333, "ARG_OF_PERICENTER": 356.0949, "MEAN_ANOMALY": 4.0165, "EPHEMERIS_TYPE": 0, "CLASSIFICATION_TYPE": "U", "NORAD_CAT_ID": 31326, "ELEMENT_SET_NO": 999, "REV_AT_EPOCH": 73789, "BSTAR": 0.0045407433, "MEAN_MOTION_DOT": 0.00057569, "MEAN_MOTION_DDOT": 0}, "tle": {"line1": "1 31326U 99025BQE 25349.64755699  .00057569  00000+0  45407-2 0  9997", "line2": "2 31326  98.9962 232.0333 0013193 356.0949   4.0165 15.00424804737897"}}, "geometry": {"type": "Point", "coordinates": [59.811514191788326, -8.030078398510517]}}, {"type": "Feature", "properties": {"norad_id": 31327, "name": "FENGYUN 1C DEB", "group": "fengyun-1c-debris", "lat": 42.90516258815283, "lon": -7.728574066375922, "alt_km": 506.7019988102629, "timestamp": "2025-12-23T11:34:48.444753+00:00", "meta": {"OBJECT_NAME": "FENGYUN 1C DEB", "OBJECT_ID": "1999-025BQF", "EPOCH": "2025-12-22T06:47:26.536128", "MEAN_MOTION": 15.11384223, "ECCENTRICITY": 0.00849563, "INCLINATION": 98.9835, "RA_OF_ASC_NODE": 359.3185, "ARG_OF_PERICENTER": 338.6786, "MEAN_ANOMALY": 21.0907, "EPHEMERIS_TYPE": 0, "CLASSIFICATION_TYPE": "U", "NORAD_CAT_ID": 31327, "ELEMENT_SET_NO": 999, "REV_AT_EPOCH": 243, "BSTAR": 0.0016972321, "MEAN_MOTION_DOT": 0.00031274, "MEAN_MOTION_DDOT": 0}, "tle": {"line1": "1 31327U 99025BQF 25356.28294602  .00031274  00000+0  16972-2 0  9998", "line2": "2 31327  98.9835 359.3185 0084956 338.6786  21.0907 15.11384223  2435"}}, "geometry": {"type": "Point", "coordinates": [-7.728574066375922, 42.90516258815283]}}, {"type": "Feature", "properties": {"norad_id": 31328, "name": "FENGYUN 1C DEB", "group": "fengyun-1c-debris", "lat": -80.87291658013132, "lon": 39.25786325784762, "alt_km": 800.0928207476045, "timestamp": "2025-12-23T11:34:48.444762+00:00", "meta": {"OBJECT_NAME": "FENGYUN 1C DEB", "OBJECT_ID": "1999-025BQG", "EPOCH": "2025-12-23T03:35:15.025344", "MEAN_MOTION": 14.28948811, "ECCENTRICITY": 0.0104168, "INCLINATION": 98.4845, "RA_OF_ASC_NODE": 330.6368, "ARG_OF_PERICENTER": 185.6622, "MEAN_ANOMALY": 174.339, "EPHEMERIS_TYPE": 0, "CLASSIFICATION_TYPE": "U", "NORAD_CAT_ID": 31328, "ELEMENT_SET_NO": 999, "REV_AT_EPOCH": 97611, "BSTAR": 6.4466e-05, "MEAN_MOTION_DOT": 1.3e-06, "MEAN_MOTION_DDOT": 0}, "tle": {"line1": "1 31328U 99025BQG 25357.14947946  .00000130  00000+0  64466-4 0  9991", "line2": "2 31328  98.4845 330.6368 0104168 185.6622 174.3390 14.28948811976113"}}, "geometry": {"type": "Point", "coordinates": [39.25786325784762, -80.87291658013132]}}, {"type": "Feature", "properties": {"norad_id": 31330, "name": "FENGYUN 1C DEB", "group": "fengyun-1c-debris", "lat": 10.838191703731638, "lon": 161.95250251460368, "alt_km": 526.6247503127352, "timestamp": "2025-12-23T11:34:48.444771+00:00", "meta": {"OBJECT_NAME": "FENGYUN 1C DEB", "OBJECT_ID": "1999-025BQJ", "EPOCH": "2025-12-22T10:23:05.984160", "MEAN_MOTION": 15.13483918, "ECCENTRICITY": 0.00015579, "INCLINATION": 98.8822, "RA_OF_ASC_NODE": 162.4457, "ARG_OF_PERICENTER": 241.118, "MEAN_ANOMALY": 172.8251, "EPHEMERIS_TYPE": 0, "CLASSIFICATION_TYPE": "U", "NORAD_CAT_ID": 31330, "ELEMENT_SET_NO": 999, "REV_AT_EPOCH": 97276, "BSTAR": 0.010683231, "MEAN_MOTION_DOT": 0.00196266, "MEAN_MOTION_DDOT": 0}, "tle": {"line1": "1 31330U 99025BQJ 25356.43270815  .00196266  00000+0  10683-1 0  9994", "line2": "2 31330  98.8822 162.4457 0001557 241.1180 172.8251 15.13483918972763"}}, "geometry": {"type": "Point", "coordinates": [161.95250251460368, 10.838191703731638]}}, {"type": "Feature", "properties": {"norad_id": 31331, "name": "FENGYUN 1C DEB", "group": "fengyun-1c-debris", "lat": -57.80616224600825, "lon": -171.36455992120239, "alt_km": 895.829315841168, "timestamp": "2025-12-23T11:34:48.444781+00:00", "meta": {"OBJECT_NAME": "FENGYUN 1C DEB", "OBJECT_ID": "1999-025BQK", "EPOCH": "2025-12-19T07:00:29.877408", "MEAN_MOTION": 14.00628517, "ECCENTRICITY": 0.0053435, "INCLINATION": 98.8725, "RA_OF_ASC_NODE": 18.9328, "ARG_OF_PERICENTER": 164.3513, "MEAN_ANOMALY": 195.9319, "EPHEMERIS_TYPE": 0, "CLASSIFICATION_TYPE": "U", "NORAD_CAT_ID": 31331, "ELEMENT_SET_NO": 999, "REV_AT_EPOCH": 63948, "BSTAR": 0.00038925, "MEAN_MOTION_DOT": 5.44e-06, "MEAN_MOTION_DDOT": 0}, "tle": {"line1": "1 31331U 99025BQK 25353.29201247  .00000544  00000+0  38925-3 0  9993", "line2": "2 31331  98.8725  18.9328 0053435 164.3513 195.9319 14.00628517639487"}}, "geometry": {"type": "Point", "coordinates": [-171.36455992120239, -57.80616224600825]}}, {"type": "Feature", "properties": {"norad_id": 31332, "name": "FENGYUN 1C DEB", "group": "fengyun-1c-debris", "lat": 48.621477029826536, "lon": -162.48153436782633, "alt_km": 874.2168358738991, "timestamp": "2025-12-23T11:34:48.444790+00:00", "meta": {"OBJECT_NAME": "FENGYUN 1C DEB", "OBJECT_ID": "1999-025BQL", "EPOCH": "2025-12-22T23:20:29.361120", "MEAN_MOTION": 14.1187473, "ECCENTRICITY": 0.0049582, "INCLINATION": 98.7057, "RA_OF_ASC_NODE": 7.0074, "ARG_OF_PERICENTER": 356.0586, "MEAN_ANOMALY": 63.624, "EPHEMERIS_TYPE": 0, "CLASSIFICATION_TYPE": "U", "NORAD_CAT_ID": 31332, "ELEMENT_SET_NO": 999, "REV_AT_EPOCH": 96116, "BSTAR": 0.00083351, "MEAN_MOTION_DOT": 1.497e-05, "MEAN_MOTION_DDOT": 0}, "tle": {"line1": "1 31332U 99025BQL 25356.97256205  .00001497  00000+0  83351-3 0  9997", "line2": "2 31332  98.7057   7.0074 0049582 356.0586  63.6240 14.11874730961169"}}, "geometry": {"type": "Point", "coordinates": [-162.48153436782633, 48.621477029826536]}}, {"type": "Feature", "properties": {"norad_id": 31333, "name": "FENGYUN 1C DEB", "group": "fengyun-1c-debris", "lat": -12.041332102467814, "lon": -170.15315204674403, "alt_km": 874.9841407721005, "timestamp": "2025-12-23T11:34:48.444800+00:00", "meta": {"OBJECT_NAME": "FENGYUN 1C DEB", "OBJECT_ID": "1999-025BQM", "EPOCH": "2025-12-20T18:42:54.770112", "MEAN_MOTION": 14.26566831, "ECCENTRICITY": 0.00982731, "INCLINATION": 98.4277, "RA_OF_ASC_NODE": 9.0567, "ARG_OF_PERICENTER": 2.9268, "MEAN_ANOMALY": 357.2467, "EPHEMERIS_TYPE": 0, "CLASSIFICATION_TYPE": "U", "NORAD_CAT_ID": 31333, "ELEMENT_SET_NO": 999, "REV_AT_EPOCH": 96706, "BSTAR": 0.00048897512, "MEAN_MOTION_DOT": 1.199e-05, "MEAN_MOTION_DDOT": 0}, "tle": {"line1": "1 31333U 99025BQM 25354.77980058  .00001199  00000+0  48898-3 0  9990", "line2": "2 31333  98.4277   9.0567 0098273   2.9268 357.2467 14.26566831967069"}}, "geometry": {"type": "Point", "coordinates": [-170.15315204674403, -12.041332102467814]}}, {"type": "Feature", "properties": {"norad_id": 31336, "name": "FENGYUN 1C DEB", "group": "fengyun-1c-debris", "lat": 46.747015342847625, "lon": 43.458115321930485, "alt_km": 706.380711593376, "timestamp": "2025-12-23T11:34:48.444809+00:00", "meta": {"OBJECT_NAME": "FENGYUN 1C DEB", "OBJECT_ID": "1999-025BQQ", "EPOCH": "2025-12-22T10:23:35.729952", "MEAN_MOTION": 14.38719695, "ECCENTRICITY": 0.00940279, "INCLINATION": 98.4633, "RA_OF_ASC_NODE": 51.5291, "ARG_OF_PERICENTER": 89.9469, "MEAN_ANOMALY": 285.8393, "EPHEMERIS_TYPE": 0, "CLASSIFICATION_TYPE": "U", "NORAD_CAT_ID": 31336, "ELEMENT_SET_NO": 999, "REV_AT_EPOCH": 97930, "BSTAR": 0.00027821112, "MEAN_MOTION_DOT": 8.54e-06, "MEAN_MOTION_DDOT": 0}, "tle": {"line1": "1 31336U 99025BQQ 25356.43305243  .00000854  00000+0  27821-3 0  9995", "line2": "2 31336  98.4633  51.5291 0094027  89.9469 285.8393 14.38719695979300"}}, "geometry": {"type": "Point", "coordinates": [43.458115321930485, 46.747015342847625]}}, {"type": "Feature", "properties": {"norad_id": 31338, "name": "FENGYUN 1C DEB", "group": "fengyun-1c-debris", "lat": 10.10280992999841, "lon": -164.21912998904787, "alt_km": 803.8984089936694, "timestamp": "2025-12-23T11:34:48.444818+00:00", "meta": {"OBJECT_NAME": "FENGYUN 1C DEB", "OBJECT_ID": "1999-025BQS", "EPOCH": "2025-12-21T07:08:18.738240", "MEAN_MOTION": 14.20804957, "ECCENTRICITY": 0.00719602, "INCLINATION": 98.7165, "RA_OF_ASC_NODE": 195.1923, "ARG_OF_PERICENTER": 84.0932, "MEAN_ANOMALY": 276.8441, "EPHEMERIS_TYPE": 0, "CLASSIFICATION_TYPE": "U", "NORAD_CAT_ID": 31338, "ELEMENT_SET_NO": 999, "REV_AT_EPOCH": 63779, "BSTAR": 0.0018605198, "MEAN_MOTION_DOT": 4.083e-05, "MEAN_MOTION_DDOT": 0}, "tle": {"line1": "1 31338U 99025BQS 25355.29743910  .00004083  00000+0  18605-2 0  9994", "line2": "2 31338  98.7165 195.1923 0071960  84.0932 276.8441 14.20804957637799"}}, "geometry": {"type": "Point", "coordinates": [-164.21912998904787, 10.10280992999841]}}]}